OBJECT_NAME,OBJECT_ID,EPOCH,MEAN_MOTION,ECCENTRICITY,INCLINATION,RA_OF_ASC_NODE,ARG_OF_PERICENTER,MEAN_ANOMALY,EPHEMERIS_TYPE,CLASSIFICATION_TYPE,NORAD_CAT_ID,ELEMENT_SET_NO,REV_AT_EPOCH,BSTAR,MEAN_MOTION_DOT,MEAN_MOTION_DDOT
USA 167,2003-008A,2026-07-17T14:24:25.406784,1.00270142,.00035157,11.0203,43.1323,313.3511,33.2640,0,U,27691,999,707,0,-.9E-7,0
USA 169 (MILSTAR-2 4),2003-012A,2026-07-17T20:50:19.066272,1.00273147,.00994219,12.3952,29.5886,10.3486,0.4785,0,U,27711,999,3326,0,-.209E-5,0
ASIASAT 4,2003-014A,2026-07-17T13:07:38.548416,1.00272159,.0002844,4.7787,75.3623,40.6527,163.8071,0,U,27718,999,4560,0,-.234E-5,0
HELLAS-SAT 2,2003-020A,2026-07-17T20:04:13.226016,1.00271747,.00037878,7.4290,67.5141,82.6477,76.5052,0,U,27811,999,4315,0,-.96E-6,0
THURAYA-2,2003-026A,2026-07-17T16:30:38.657088,1.00272225,.00024605,8.8846,31.8307,26.7995,168.5387,0,U,27825,999,8465,0,.113E-5,0
OPTUS C1,2003-028B,2026-07-17T20:51:26.458272,1.00269147,.00053067,6.9646,69.0345,43.2546,291.9189,0,U,27831,999,5336,0,-.164E-5,0
USA 170,2003-040A,2026-07-17T17:44:47.667840,1.00275846,.00018506,10.5634,47.6539,75.9450,102.4254,0,U,27875,999,3330,0,.113E-5,0
GALAXY 13 (HORIZONS-1),2003-044A,2026-07-17T17:41:38.151168,1.00272424,.00021129,1.4953,83.4691,34.6454,292.8296,0,U,27954,999,4687,0,.123E-5,0
YAMAL 202,2003-053A,2026-07-17T10:37:40.567296,1.00271757,.0003153,6.4163,70.5682,44.8383,142.8074,0,U,28089,999,8300,0,-.93E-6,0
UFO 11 (USA 174),2003-057A,2026-07-17T19:13:07.918176,1.00270750,.00027573,8.9507,33.6555,100.1010,165.7011,0,U,28117,999,8275,0,-.116E-5,0
USA 176 (DSP 22),2004-004A,2026-07-17T21:35:20.065056,1.00265080,.00011367,12.1035,25.8402,301.7216,242.4725,0,U,28158,999,3324,0,-.309E-5,0
ABS-4 (MOBISAT-1),2004-007A,2026-07-17T19:44:38.789088,1.00274079,.00045712,6.1158,71.6305,47.9372,173.2003,0,U,28184,999,5264,0,.27E-6,0
INTELSAT 10-02,2004-022A,2026-07-17T20:05:49.493760,1.00270357,.00002137,0.0550,254.9263,2.1127,339.0590,0,U,28358,999,8086,0,-.2E-6,0
ANIK F2,2004-027A,2026-07-17T21:18:01.410048,1.00271552,.0003615,3.3652,79.0348,33.3996,31.6368,0,U,28378,999,4157,0,-.6E-6,0
AMC-15,2004-041A,2026-07-17T21:19:46.241760,1.00271801,.00022575,0.0435,283.7140,190.3240,36.5483,0,U,28446,999,7961,0,-.97E-6,0
NSS-10,2005-003A,2026-07-17T21:39:04.705920,1.00272371,.00027667,6.5252,70.0775,41.4246,111.5215,0,U,28526,999,5346,0,-.263E-5,0
INMARSAT 4-F1,2005-009A,2026-07-17T20:57:48.348000,1.00271594,.00026413,5.2093,42.7939,72.5469,312.8867,0,U,28628,999,7798,0,.22E-6,0
DIRECTV 8,2005-019A,2026-07-17T17:50:22.314048,1.00270482,.00031063,0.0222,65.6449,55.8393,322.6185,0,U,28659,999,7737,0,0,0
GALAXY 28 (G-28),2005-022A,2026-07-17T21:41:56.929632,1.00271391,.00024882,3.3748,78.5523,32.1118,123.4405,0,U,28702,999,5228,0,-.211E-5,0
THAICOM 4,2005-028A,2026-07-17T22:24:39.235680,1.00279259,.00016065,0.3228,85.4887,17.3479,288.5625,0,U,28786,999,5255,0,-.371E-5,0
ANIK F1R,2005-036A,2026-07-17T14:28:25.025088,1.00271717,.00039001,4.3887,76.2000,19.6897,309.3187,0,U,28868,999,4675,0,-.86E-6,0
SYRACUSE 3A,2005-041B,2026-07-17T20:20:14.547840,1.00258148,.00022678,4.7170,75.4597,42.1126,169.7849,0,U,28885,999,7605,0,.119E-5,0
INMARSAT 4-F2,2005-044A,2026-07-17T20:47:56.793120,1.00271440,.00028281,5.1343,43.6762,60.1029,287.3782,0,U,28899,999,7582,0,-.271E-5,0
METEOSAT-9 (MSG-2),2005-049B,2026-07-17T23:17:10.063968,1.00273580,.00023274,9.4295,53.8604,357.3111,279.5684,0,U,28912,999,730,0,.112E-5,0
EUTELSAT 174A,2005-052A,2026-07-17T20:56:11.003712,1.00271994,.00059335,4.2947,76.1468,41.2052,306.3191,0,U,28924,999,5263,0,-.2E-7,0
ECHOSTAR 10,2006-003A,2026-07-17T21:18:16.385760,1.00270818,.00016362,0.0486,285.3644,148.1217,71.5954,0,U,28935,999,7477,0,-.64E-6,0
SPAINSAT,2006-007A,2026-07-17T06:20:38.830848,1.00273308,.00047771,0.6394,86.0394,26.4152,247.5754,0,U,28945,999,7452,0,-.227E-5,0
JCSAT-5A,2006-010A,2026-07-17T22:27:16.485408,1.00274818,.00018497,1.1872,83.8721,25.3293,295.4038,0,U,29045,999,7407,0,-.337E-5,0
ASTRA 1KR,2006-012A,2026-07-17T20:00:04.146912,1.00271852,.00033961,0.5512,83.1820,25.8260,145.6390,0,U,29055,999,4600,0,.11E-5,0
GALAXY 16 (G-16),2006-023A,2026-07-17T21:21:16.097760,1.00271508,.00025899,0.0245,149.5441,326.2932,41.1663,0,U,29236,999,7328,0,-.136E-5,0
EUTELSAT 33F,2006-032A,2026-07-17T18:33:46.805760,1.00273346,.00035118,1.7389,81.9005,31.2191,133.9778,0,U,29270,999,4761,0,.146E-5,0
JCSAT-3A,2006-033A,2026-07-17T22:26:09.093408,1.00272124,.00021772,0.0428,252.9820,227.2697,280.0345,0,U,29272,999,4804,0,-.353E-5,0
