USA 167                 
1 27691U 03008A   26198.60029406 -.00000009  00000+0  00000+0 0  9997
2 27691  11.0203  43.1323 0003515 313.3511  33.2640  1.00270142  7070
USA 169 (MILSTAR-2 4)   
1 27711U 03012A   26198.86827623 -.00000209  00000+0  00000+0 0  9992
2 27711  12.3952  29.5886 0099421  10.3486   0.4785  1.00273147 33260
ASIASAT 4               
1 27718U 03014A   26198.54697394 -.00000234  00000+0  00000+0 0  9994
2 27718   4.7787  75.3623 0002844  40.6527 163.8071  1.00272159 45606
HELLAS-SAT 2            
1 27811U 03020A   26198.83626419 -.00000096  00000+0  00000+0 0  9993
2 27811   7.4290  67.5141 0003787  82.6477  76.5052  1.00271747 43153
THURAYA-2               
1 27825U 03026A   26198.68794742  .00000113  00000+0  00000+0 0  9991
2 27825   8.8846  31.8307 0002460  26.7995 168.5387  1.00272225 84654
OPTUS C1                
1 27831U 03028B   26198.86905623 -.00000164  00000+0  00000+0 0  9999
2 27831   6.9646  69.0345 0005306  43.2546 291.9189  1.00269147 53365
USA 170                 
1 27875U 03040A   26198.73944060  .00000113  00000+0  00000+0 0  9998
2 27875  10.5634  47.6539 0001850  75.9450 102.4254  1.00275846 33308
GALAXY 13 (HORIZONS-1)  
1 27954U 03044A   26198.73724712  .00000123  00000+0  00000+0 0  9991
2 27954   1.4953  83.4691 0002112  34.6454 292.8296  1.00272424 46879
YAMAL 202               
1 28089U 03053A   26198.44283064 -.00000093  00000+0  00000+0 0  9996
2 28089   6.4163  70.5682 0003153  44.8383 142.8074  1.00271757 83006
UFO 11 (USA 174)        
1 28117U 03057A   26198.80078609 -.00000116  00000+0  00000+0 0  9995
2 28117   8.9507  33.6555 0002757 100.1010 165.7011  1.00270750 82756
USA 176 (DSP 22)        
1 28158U 04004A   26198.89953779 -.00000309  00000+0  00000+0 0  9996
2 28158  12.1035  25.8402 0001136 301.7216 242.4725  1.00265080 33240
ABS-4 (MOBISAT-1)       
1 28184U 04007A   26198.82267117  .00000027  00000+0  00000+0 0  9991
2 28184   6.1158  71.6305 0004571  47.9372 173.2003  1.00274079 52640
INTELSAT 10-02          
1 28358U 04022A   26198.83737840 -.00000020  00000+0  00000+0 0  9991
2 28358   0.0550 254.9263 0000213   2.1127 339.0590  1.00270357 80864
ANIK F2                 
1 28378U 04027A   26198.88751632 -.00000060  00000+0  00000+0 0  9992
2 28378   3.3652  79.0348 0003615  33.3996  31.6368  1.00271552 41575
AMC-15                  
1 28446U 04041A   26198.88872965 -.00000097  00000+0  00000+0 0  9997
2 28446   0.0435 283.7140 0002257 190.3240  36.5483  1.00271801 79610
NSS-10                  
1 28526U 05003A   26198.90213780 -.00000263  00000+0  00000+0 0  9997
2 28526   6.5252  70.0775 0002766  41.4246 111.5215  1.00272371 53460
INMARSAT 4-F1           
1 28628U 05009A   26198.87347625  .00000022  00000+0  00000+0 0  9990
2 28628   5.2093  42.7939 0002641  72.5469 312.8867  1.00271594 77982
DIRECTV 8               
1 28659U 05019A   26198.74331382  .00000000  00000+0  00000+0 0  9990
2 28659   0.0222  65.6449 0003106  55.8393 322.6185  1.00270482 77370
GALAXY 28 (G-28)        
1 28702U 05022A   26198.90413113 -.00000211  00000+0  00000+0 0  9999
2 28702   3.3748  78.5523 0002488  32.1118 123.4405  1.00271391 52284
THAICOM 4               
1 28786U 05028A   26198.93378745 -.00000371  00000+0  00000+0 0  9998
2 28786   0.3228  85.4887 0001606  17.3479 288.5625  1.00279259 52550
ANIK F1R                
1 28868U 05036A   26198.60306742 -.00000086  00000+0  00000+0 0  9993
2 28868   4.3887  76.2000 0003900  19.6897 309.3187  1.00271717 46750
SYRACUSE 3A             
1 28885U 05041B   26198.84739060  .00000119  00000+0  00000+0 0  9993
2 28885   4.7170  75.4597 0002267  42.1126 169.7849  1.00258148 76053
INMARSAT 4-F2           
1 28899U 05044A   26198.86662955 -.00000271  00000+0  00000+0 0  9991
2 28899   5.1343  43.6762 0002828  60.1029 287.3782  1.00271440 75828
METEOSAT-9 (MSG-2)      
1 28912U 05049B   26198.97025537  .00000112  00000+0  00000+0 0  9996
2 28912   9.4295  53.8604 0002327 357.3111 279.5684  1.00273580  7301
EUTELSAT 174A           
1 28924U 05052A   26198.87234958 -.00000002  00000+0  00000+0 0  9990
2 28924   4.2947  76.1468 0005933  41.2052 306.3191  1.00271994 52631
ECHOSTAR 10             
1 28935U 06003A   26198.88768965 -.00000064  00000+0  00000+0 0  9998
2 28935   0.0486 285.3644 0001636 148.1217  71.5954  1.00270818 74772
SPAINSAT                
1 28945U 06007A   26198.26433832 -.00000227  00000+0  00000+0 0  9998
2 28945   0.6394  86.0394 0004777  26.4152 247.5754  1.00273308 74523
JCSAT-5A                
1 29045U 06010A   26198.93560747 -.00000337  00000+0  00000+0 0  9996
2 29045   1.1872  83.8721 0001849  25.3293 295.4038  1.00274818 74076
ASTRA 1KR               
1 29055U 06012A   26198.83338133  .00000110  00000+0  00000+0 0  9998
2 29055   0.5512  83.1820 0003396  25.8260 145.6390  1.00271852 46006
GALAXY 16 (G-16)        
1 29236U 06023A   26198.88976965 -.00000136  00000+0  00000+0 0  9996
2 29236   0.0245 149.5441 0002589 326.2932  41.1663  1.00271508 73289
EUTELSAT 33F            
1 29270U 06032A   26198.77345840  .00000146  00000+0  00000+0 0  9994
2 29270   1.7389  81.9005 0003511  31.2191 133.9778  1.00273346 47612
JCSAT-3A                
1 29272U 06033A   26198.93482747 -.00000353  00000+0  00000+0 0  9994
2 29272   0.0428 252.9820 0002177 227.2697 280.0345  1.00272124 48045
